NORAD_CAT_ID,OBJECT_NAME,OBJECT_TYPE,EPOCH,MEAN_MOTION,ECCENTRICITY,INCLINATION,RA_OF_ASC_NODE,ARG_OF_PERICENTER,MEAN_ANOMALY,BSTAR,MEAN_MOTION_DOT,MEAN_MOTION_DDOT,TLE_LINE0,TLE_LINE1,TLE_LINE2,SEMIMAJOR_AXIS,PERIOD,APOGEE,PERIGEE,DECAYED
55956.0,STARLINK-5883,PAYLOAD,2023-05-06 20:46:31,15.69928179,0.0003112,69.9983,40.198,264.1712,95.9129,-4.0578e-06,-7.01e-06,0.0,0 STARLINK-5883,1 55956U 23037AU  23126.86563942 -.00000701  00000-0 -40578-5 0  9991,2 55956  69.9983  40.1980 0003112 264.1712  95.9129 15.69928179  8390,6737.239,91.724,361.201,357.008,0.0
55956.0,STARLINK-5883,PAYLOAD,2023-05-07 04:25:17,15.69923497,0.0003198,69.9985,39.303,263.6564,96.4268,-8.2035e-06,-1.199e-05,0.0,0 STARLINK-5883,1 55956U 23037AU  23127.18422718 -.00001199  00000-0 -82035-5 0  9998,2 55956  69.9985  39.3030 0003198 263.6564  96.4268 15.69923497  8445,6737.253,91.724,361.272,356.963,0.0
55956.0,STARLINK-5883,PAYLOAD,2023-05-07 21:14:34,15.69925594,0.0003458,69.9988,37.3338,268.3592,91.7208,-2.1133e-05,-2.753e-05,0.0,0 STARLINK-5883,1 55956U 23037AU  23127.88511626 -.00002753  00000-0 -21133-4 0  9990,2 55956  69.9988  37.3338 0003458 268.3592  91.7208 15.69925594  8216,6737.247,91.724,361.442,356.782,0.0
55956.0,STARLINK-5883,PAYLOAD,2023-05-08 03:21:33,15.69937397,0.00034,69.9992,36.6181,259.4145,100.6668,6.8892e-06,6.16e-06,0.0,0 STARLINK-5883,1 55956U 23037AU  23128.13996840  .00000616  00000-0  68892-5 0  9992,2 55956  69.9992  36.6181 0003400 259.4145 100.6668 15.69937397  8596,6737.213,91.723,361.369,356.787,0.0
55956.0,STARLINK-5883,PAYLOAD,2023-05-08 11:00:19,15.69922435,0.0003632,69.9988,35.7234,264.1536,95.9245,1.1526e-05,1.173e-05,0.0,0 STARLINK-5883,1 55956U 23037AU  23128.45855824  .00001173  00000-0  11526-4 0  9993,2 55956  69.9988  35.7234 0003632 264.1536  95.9245 15.69922435  8644,6737.256,91.724,361.568,356.674,0.0
55956.0,STARLINK-5883,PAYLOAD,2023-05-08 20:10:50,15.69922284,0.0003525,69.9992,34.6486,260.8841,99.1956,9.0941e-06,8.81e-06,0.0,0 STARLINK-5883,1 55956U 23037AU  23128.84085916  .00000881  00000-0  90941-5 0  9997,2 55956  69.9992  34.6486 0003525 260.8841  99.1956 15.69922284  8365,6737.256,91.724,361.496,356.746,0.0
55956.0,STARLINK-5883,PAYLOAD,2023-05-09 11:28:21,15.69916416,0.0003187,69.9999,32.8573,262.9018,97.1815,2.8155e-06,1.26e-06,0.0,0 STARLINK-5883,1 55956U 23037AU  23129.47803230  .00000126  00000-0  28155-5 0  9994,2 55956  69.9999  32.8573 0003187 262.9018  97.1815 15.69916416  8803,6737.273,91.725,361.285,356.991,0.0
55956.0,STARLINK-5883,PAYLOAD,2023-05-10 02:45:52,15.69931745,0.0003402,69.9993,31.0649,262.2637,97.8172,-1.7579e-06,-4.24e-06,0.0,0 STARLINK-5883,1 55956U 23037AU  23130.11519222 -.00000424  00000-0 -17579-5 0  9993,2 55956  69.9993  31.0649 0003402 262.2637  97.8172 15.69931745  8560,6737.229,91.724,361.386,356.802,0.0
55956.0,STARLINK-5883,PAYLOAD,2023-05-10 18:03:23,15.69923898,0.0003409,69.9993,29.2734,264.0002,96.0805,6.2969e-06,5.44e-06,0.0,0 STARLINK-5883,1 55956U 23037AU  23130.75236100  .00000544  00000-0  62969-5 0  9998,2 55956  69.9993  29.2734 0003409 264.0002  96.0805 15.69923898  9001,6737.252,91.724,361.413,356.82,0.0
55956.0,STARLINK-5883,PAYLOAD,2023-05-10 19:35:08,15.69926025,0.0003391,69.9994,29.094,263.6741,96.4068,8.5964e-06,8.21e-06,0.0,0 STARLINK-5883,1 55956U 23037AU  23130.81607588  .00000821  00000-0  85964-5 0  9995,2 55956  69.9994  29.0940 0003391 263.6741  96.4068 15.69926025  8676,6737.246,91.724,361.395,356.826,0.0
55956.0,STARLINK-5883,PAYLOAD,2023-05-11 01:42:09,15.69933354,0.0003379,69.9994,28.3774,264.1761,95.905,8.3865e-06,7.96e-06,0.0,0 STARLINK-5883,1 55956U 23037AU  23131.07093781  .00000796  00000-0  83865-5 0  9997,2 55956  69.9994  28.3774 0003379 264.1761  95.9050 15.69933354  9058,6737.225,91.724,361.366,356.813,0.0
55956.0,STARLINK-5883,PAYLOAD,2023-05-11 03:13:54,15.69929693,0.0003314,69.9998,28.1986,262.9589,97.123,6.4057e-06,5.58e-06,0.0,0 STARLINK-5883,1 55956U 23037AU  23131.13465742  .00000558  00000-0  64057-5 0  9992,2 55956  69.9998  28.1986 0003314 262.9589  97.1230 15.69929693  8726,6737.235,91.724,361.333,356.867,0.0
55956.0,STARLINK-5883,PAYLOAD,2023-05-12 02:10:11,15.69933266,0.0003809,69.9986,25.5117,266.726,93.35,1.4652e-05,1.55e-05,0.0,0 STARLINK-5883,1 55956U 23037AU  23132.09040535  .00001550  00000-0  14652-4 0  9995,2 55956  69.9986  25.5117 0003809 266.7260  93.3500 15.69933266  8872,6737.225,91.724,361.656,356.524,0.0
55956.0,STARLINK-5883,PAYLOAD,2023-05-12 18:59:28,15.69924457,0.0003342,69.9989,23.5407,260.9541,99.1276,-4.5939e-06,-7.65e-06,0.0,0 STARLINK-5883,1 55956U 23037AU  23132.79129995 -.00000765  00000-0 -45939-5 0  9992,2 55956  69.9989  23.5407 0003342 260.9541  99.1276 15.69924457  9322,6737.25,91.724,361.367,356.864,0.0
55956.0,STARLINK-5883,PAYLOAD,2023-05-13 02:38:13,15.699296,0.0003114,70.0,22.6467,258.0374,102.0473,-6.165e-07,-2.87e-06,0.0,0 STARLINK-5883,1 55956U 23037AU  23133.10987857 -.00000287  00000-0 -61650-6 0  9995,2 55956  70.0000  22.6467 0003114 258.0374 102.0473 15.69929600  9377,6737.235,91.724,361.198,357.002,0.0
55956.0,STARLINK-5883,PAYLOAD,2023-05-13 19:27:30,15.69919327,0.0002556,70.0018,20.6749,255.1254,104.9658,-3.7647e-06,-6.65e-06,0.0,0 STARLINK-5883,1 55956U 23037AU  23133.81077407 -.00000665  00000-0 -37647-5 0  9992,2 55956  70.0018  20.6749 0002556 255.1254 104.9658 15.69919327  9147,6737.265,91.724,360.852,357.408,0.0
55956.0,STARLINK-5883,PAYLOAD,2023-05-14 01:34:30,15.69938168,0.0003636,69.9991,19.9584,260.8431,99.2353,1.9784e-06,2.5e-07,0.0,0 STARLINK-5883,1 55956U 23037AU  23134.06562566  .00000025  00000-0  19784-5 0  9995,2 55956  69.9991  19.9584 0003636 260.8431  99.2353 15.69938168  9188,6737.211,91.723,361.526,356.626,0.0
55956.0,STARLINK-5883,PAYLOAD,2023-05-14 19:55:32,15.69945839,0.000331,69.9993,17.8123,255.3649,104.718,-4.5076e-05,-5.634e-05,0.0,0 STARLINK-5883,1 55956U 23037AU  23134.83023465 -.00005634  00000-0 -45076-4 0  9995,2 55956  69.9993  17.8123 0003310 255.3649 104.7180 15.69945839  9302,6737.189,91.723,361.284,356.824,0.0
55956.0,STARLINK-5883,PAYLOAD,2023-05-15 00:30:47,15.69940278,0.0003116,69.999,17.2723,254.3329,105.7523,-3.5645e-05,-4.499e-05,0.0,0 STARLINK-5883,1 55956U 23037AU  23135.02138388 -.00004499  00000-0 -35645-4 0  9997,2 55956  69.9990  17.2723 0003116 254.3329 105.7523 15.69940278  9671,6737.205,91.723,361.169,356.971,0.0
55956.0,STARLINK-5883,PAYLOAD,2023-05-15 02:02:33,15.69918416,0.0003069,69.999,17.092,256.0514,104.034,7.5817e-06,6.99e-06,0.0,0 STARLINK-5883,1 55956U 23037AU  23135.08510496  .00000699  00000-0  75817-5 0  9999,2 55956  69.9990  17.0920 0003069 256.0514 104.0340 15.69918416  9689,6737.267,91.725,361.2,357.065,0.0
55956.0,STARLINK-5883,PAYLOAD,2023-05-15 09:41:18,15.69929452,0.0003336,69.9989,16.1961,263.6047,96.4769,4.9768e-06,3.86e-06,0.0,0 STARLINK-5883,1 55956U 23037AU  23135.40368142  .00000386  00000-0  49768-5 0  9993,2 55956  69.9989  16.1961 0003336 263.6047  96.4769 15.69929452  9731,6737.236,91.724,361.348,356.853,0.0
55956.0,STARLINK-5883,PAYLOAD,2023-05-15 17:20:04,15.69924185,0.0003168,69.9994,15.3013,253.5095,106.5753,-5.1489e-07,-2.75e-06,0.0,0 STARLINK-5883,1 55956U 23037AU  23135.72227222 -.00000275  00000-0 -51489-6 0  9994,2 55956  69.9994  15.3013 0003168 253.5095 106.5753 15.69924185  9789,6737.251,91.724,361.25,356.982,0.0
55956.0,STARLINK-5883,PAYLOAD,2023-05-16 00:58:49,15.69928192,0.0003088,69.9987,14.4051,258.0065,102.0784,-4.4326e-06,-7.46e-06,0.0,0 STARLINK-5883,1 55956U 23037AU  23136.04085407 -.00000746  00000-0 -44326-5 0  9991,2 55956  69.9987  14.4051 0003088 258.0065 102.0784 15.69928192  9496,6737.239,91.724,361.185,357.024,0.0
55956.0,STARLINK-5883,PAYLOAD,2023-05-16 22:23:21,15.69921703,0.0002815,69.9996,11.8965,249.9878,110.1015,2.1376e-05,2.358e-05,0.0,0 STARLINK-5883,1 55956U 23037AU  23136.93288428  .00002358  00000-0  21376-4 0  9995,2 55956  69.9996  11.8965 0002815 249.9878 110.1015 15.69921703  9970,6737.258,91.724,361.02,357.226,0.0
55956.0,STARLINK-5883,PAYLOAD,2023-05-17 01:26:52,15.69903599,0.0002888,69.9991,11.54,253.2291,106.8588,-1.2233e-05,-1.682e-05,0.0,0 STARLINK-5883,1 55956U 23037AU  23137.06033504 -.00001682  00000-0 -12233-4 0  9996,2 55956  69.9991  11.5400 0002888 253.2291 106.8588 15.69903599  9995,6737.31,91.725,361.121,357.229,0.0
55956.0,STARLINK-5883,PAYLOAD,2023-05-17 18:16:08,15.69918347,0.0003404,69.9986,9.5686,271.8064,88.2742,9.3731e-06,9.14e-06,0.0,0 STARLINK-5883,1 55956U 23037AU  23137.76120409  .00000914  00000-0  93731-5 0  9992,2 55956  69.9986   9.5686 0003404 271.8064  88.2742 15.69918347 10108,6737.268,91.725,361.426,356.839,0.0
55956.0,STARLINK-5883,PAYLOAD,2023-05-18 00:23:08,15.69925517,0.0003091,69.9989,8.8528,260.6147,99.47,2.6417e-06,1.05e-06,0.0,0 STARLINK-5883,1 55956U 23037AU  23138.01607152  .00000105  00000-0  26417-5 0  9995,2 55956  69.9989   8.8528 0003091 260.6147  99.4700 15.69925517  9808,6737.247,91.724,361.195,357.03,0.0
55956.0,STARLINK-5883,PAYLOAD,2023-05-18 14:08:53,15.69928869,0.0003346,69.9985,7.2419,255.0254,105.0571,2.3574e-05,2.623e-05,0.0,0 STARLINK-5883,1 55956U 23037AU  23138.58950929  .00002623  00000-0  23574-4 0  9997,2 55956  69.9985   7.2419 0003346 255.0254 105.0571 15.69928869 10238,6737.238,91.724,361.357,356.848,0.0
55956.0,STARLINK-5883,PAYLOAD,2023-05-19 00:51:10,15.69924069,0.0003865,69.9968,5.9867,268.0469,92.0284,6.9953e-06,6.28e-06,0.0,0 STARLINK-5883,1 55956U 23037AU  23139.03553446  .00000628  00000-0  69953-5 0  9996,2 55956  69.9968   5.9867 0003865 268.0469  92.0284 15.69924069 10301,6737.251,91.724,361.72,356.512,0.0
55956.0,STARLINK-5883,PAYLOAD,2023-05-19 19:12:12,15.69920582,0.0003536,69.998,3.837,277.1402,82.9391,-2.6302e-05,-3.374e-05,0.0,0 STARLINK-5883,1 55956U 23037AU  23139.80014964 -.00003374  00000-0 -26302-4 0  9991,2 55956  69.9980   3.8370 0003536 277.1402  82.9391 15.69920582 10082,6737.261,91.724,361.509,356.744,0.0
